#dP2018  3 10  0  0  0.00000000      96 __u+U ITR00 FIT  IAC
## 1991 518400.00000000   900.00000000 58187 0.0000000000000
+   87   C01C02C03C04C05C06C07C08C09C10C11C12C13C14E01E02E03
+        E04E05E07E08E09E11E12E14E18E19E24E26E30G01G02G03G04
+        G05G06G07G08G09G10G11G12G13G14G15G16G17G19G21G22G23
+        G24G25G26G27G28G29G30G31G32J01J02J03R01R02R03R04R05
+        R06R07R08R09R10R11R13R14R15R16R17R18R19R20R21R22R23
+        R24R26  0  0  0  0  0  0  0  0  0  0  0  0  0  0  0
++         0  0  0  0  0  0  0  0  0  0  0  0  0  0  0  0  0
++         0  0  0  0  0  0  0  0  0  0  0  0  0  0  0  0  0
++         0  0  0  0  0  0  0  0  0  0  0  0  0  0  0  0  0
++         0  0  0  0  0  0  0  0  0  0  0  0  0  0  0  0  0
++         0  0  0  0  0  0  0  0  0  0  0  0  0  0  0  0  0
++         0  0  0  0  0  0  0  0  0  0  0  0  0  0  0  0  0
%c M  cc GPS ccc cccc cccc cccc cccc ccccc ccccc ccccc ccccc
%c cc cc ccc ccc cccc cccc cccc cccc ccccc ccccc ccccc ccccc
%f  0.0000000  0.000000000  0.00000000000  0.000000000000000
%f  0.0000000  0.000000000  0.00000000000  0.000000000000000
%i    0    0    0    0      0      0      0      0         0
%i    0    0    0    0      0      0      0      0         0
/*                                                          
/*   RSA / INFORMATION & ANALYSIS CENTER (IAC) OF MCC       
/*   ULTRA-RAPID DETERMINATION                              
/* PCV:IGS14_1984 OL/AL:FES2004  NONE     YN ORB:CoN CLK:CoN
*  2018 03 10 14 15  0.00000000
PC01 -32327.538499  27058.973839    273.978725    465.820646
PC02   4382.514525  41939.451561    498.287601   -281.962088
PC03 -14844.860941  39469.176641   1151.947495   -411.959800
PC04 -39615.676338  14465.210953    370.065323     25.869309
PC05  21905.279672  36037.150138    514.655359   -168.479292
PC06 -21110.203908  24147.074331 -27266.012148   -678.223307
PC07 -16234.876397  38121.227675  -6435.170857    938.503823
PC08  -6184.316344  24617.374403  33793.063723    220.975005
PC09  -6052.278111  24973.840476 -33336.587185   -328.827344
PC10  -6969.285243  40995.259953   5862.955187    -72.928588
PC11 -17452.630182 -17147.320844 -13294.161470   -422.231684
PC12   2684.363030 -15483.360251 -22992.915269    391.395177
PC13   7719.253136  33352.676487  24787.139345   -240.385936
PC14  -6180.207844 -15268.320403  22574.213390    277.874896
PE01 -16943.737848   4585.812247 -23838.470555   -294.839364
PE02  16939.102522  -4596.113030  23828.931883      7.074585
PE03  28712.521848  -4682.713078  -5485.885108     -8.016959
PE04 -21453.916570  15969.767880 -12687.106468      8.543373
PE05  19164.188610   9392.044103 -20508.905526    306.848868
PE07   1569.926831 -17938.310746  23499.351073     70.510229
PE08  21335.845006 -16104.793440  12722.322538   6626.815364
PE09  -1491.061540  17822.869739 -23578.665455   6852.809180
PE11   8436.135381  22931.574834  16696.847858   1844.282892
PE12 -10585.329558  12740.542898  24542.562552   3681.011143
PE14  25772.032379   4546.070527   -907.391653   6618.111582
PE18 -24637.822747 -14854.600315 -11019.827582   6368.880456
PE19 -28484.034469   3478.997674   7282.519877     20.186774
PE24  -1875.641010  28690.911945   7071.203222   6820.675003
PE26 -22049.808169 -19739.355240    596.709066   6181.538498
PE30  13363.974100 -23622.305389  11786.296703   6013.952219
PG01 -16152.826158  -1807.009177  20926.867068    -33.319847
PG02  14307.668504  21808.402172  -5149.672945    178.222140
PG03 -19868.933912   7250.948819  16014.095667     25.658615
PG04   4380.794931 -21336.091146 -15235.983273     43.367808
PG05  10528.964761  11681.982430 -21486.633270    -12.431483
PG06   5953.470506  25208.985395   5857.734276    413.007778
PG07  -9153.278923  14800.074110 -19728.188446    225.144908
PG08 -26116.981625  -4788.337907  -2105.034373    -93.885613
PG09 -18357.408727   9598.628567 -16665.174936    505.873557
PG10   8511.654326 -22830.861667  10421.225434    168.717047
PG11 -20759.415916  -2948.348760  15668.452281   -737.233285
PG12  19442.336227  -4893.770611  17133.421644    346.109707
PG13  21351.381876  12530.946786  -9726.036838    -95.549707
PG14  -8600.500570 -15989.373340  19727.922301    -94.958733
PG15  26532.068849   3070.062929  -2040.971746   -356.522952
PG16  -9140.491609 -11648.840372 -22167.394300     30.583104
PG17  -1083.340290  14956.987896  22313.604633   -116.884716
PG19   6647.657868  15517.699868  20169.191765   -451.803282
PG21   5861.975622 -18083.387369 -17743.105200   -421.234519
PG22 -18130.223717    142.850017  19655.940415   -318.304717
PG23 -25983.510282   1177.097349  -6114.869318   -218.664317
PG24  17581.220391   4865.230229  19282.989560    -47.094726
PG25  19150.712546 -16796.629458   6895.013544   -551.258761
PG26   -840.963181 -19683.075564 -17754.950358   -222.793174
PG27 -19108.899916 -12200.029339 -14107.623992    369.219153
PG28 -12467.120894  21998.724013   8821.297694    695.793040
PG29  21463.360378  -5598.460903 -14609.455912    484.509925
PG30  -3463.421926  21973.341603 -14401.974801     96.260751
PG31  -5999.780227 -25252.925969   4482.432881    136.402198
PG32   1096.140194 -15282.194450  21723.250272   -529.171192
PJ01 -33398.368040  25768.238981   5589.583845    -67.903088
PJ02 -19093.247629  27534.940841 -21331.679809      0.011521
PJ03 -29940.448091  24726.951500  21508.345019    -16.313440
PR01  -1131.560708  12634.159876 -22127.075157     23.165237
PR02  17030.288730   1466.506127 -18877.961946    299.145937
PR03  23279.116649  -9558.074382  -4002.767104    126.317814
PR04  15551.693007 -15041.975397  13512.942762    252.839984
PR05   -627.604183 -11949.668391  22519.265111   -262.076212
PR06 -17759.599990   -732.633883  18296.612197    128.477619
PR07 -23317.802859   9716.595230   3700.050382    -32.144321
PR08 -16115.896903  14951.754127 -12890.083476     33.511254
PR09  -9235.294890 -11490.572132 -20823.816697     43.139871
PR10 -10608.013435   7920.423949 -21812.654990     20.075303
PR11  -6102.231530  22873.256352  -9443.439891    -23.669079
PR13   9348.787393  10691.474278  21166.122756     -8.273702
PR14  10833.386142  -7736.217243  21767.043927     25.338487
PR15   7355.685164 -20732.235254  12821.562320     -7.313938
PR16  -2332.219477 -24231.575273  -7445.277374     87.485028
PR17  18807.722329   3126.617544 -16946.448817    115.505322
PR18   5716.748930  -8937.274335 -23177.376822    187.701044
PR19 -10511.104612 -16387.266121 -16478.103583    -46.899128
PR20 -21216.158812 -14174.412332   1084.624668   -330.118381
PR21 -18612.780554  -2917.497401  17193.801977     25.910573
PR22  -4114.369837   9918.011176  23140.948592    -25.298302
PR23  13579.511780  16630.202868  13765.705863    140.873526
PR24  21583.542167  13452.162990  -1842.204930   -163.475368
PR26 -21382.288905 -13872.262167    745.736579 999999.999999
EOF
